SPAWAR-CAL-R            
1 43776U 18099U   26067.65115975  .00003570  00000+0  25336-3 0  9990
2 43776  97.4524 111.5817 0019701 348.9052  11.1737 15.05212097396878
STARLINK-4076           
1 52667U 22053M   26068.52562876  .00000514  00000+0  50402-4 0  9995
2 52667  53.2178 154.8591 0001480  98.2292 261.8868 15.08834598211028
